NAVSTAR 48 (USA 151)    
1 26407U 00040A   26138.38682785  .00000035  00000+0  00000+0 0  9996
2 26407  54.8562 216.3460 0121381 302.3549  64.6528  2.00557380189352
NAVSTAR 51 (USA 166)    
1 27663U 03005A   26138.20572177  .00000037  00000+0  00000+0 0  9991
2 27663  54.8871 216.1602 0147989  53.0160 318.8094  2.00562103170718
NAVSTAR 54 (USA 177)    
1 28190U 04009A   26137.46271089 -.00000030  00000+0  00000+0 0  9991
2 28190  54.8563 276.9279 0114751 171.7221 177.4709  2.00555598162323
NAVSTAR 56 (USA 180)    
1 28474U 04045A   26138.14252748 -.00000067  00000+0  00000+0 0  9993
2 28474  55.1538 326.1059 0169846 315.6173 229.4566  2.00554404157821
NAVSTAR 57 (USA 183)    
1 28874U 05038A   26138.44943185 -.00000027  00000+0  00000+0 0  9991
2 28874  54.9035 274.3770 0127706 295.9684  73.0787  2.00567620151246
NAVSTAR 58 (USA 190)    
1 29486U 06042A   26138.16996984  .00000071  00000+0  00000+0 0  9999
2 29486  54.7062 152.5305 0106173  53.7876  11.4626  2.00571487143798
NAVSTAR 59 (USA 192)    
1 29601U 06052A   26137.00699953  .00000046  00000+0  00000+0 0  9999
2 29601  54.9391 215.2422 0085868  90.5552 270.4999  2.00556386142787
NAVSTAR 60 (USA 196)    
1 32260U 07047A   26137.81036385 -.00000018  00000+0  00000+0 0  9992
2 32260  54.0739  81.3171 0165632  86.8137 275.0441  2.00556665136200
NAVSTAR 61 (USA 199)    
1 32384U 07062A   26137.87481002 -.00000028  00000+0  00000+0 0  9993
2 32384  55.0571 275.3706 0035136 163.6491   9.9039  2.00558117134909
NAVSTAR 62 (USA 201)    
1 32711U 08012A   26138.22284236  .00000070  00000+0  00000+0 0  9999
2 32711  54.4924 151.1217 0210514 247.4430 110.3493  2.00571567133156
NAVSTAR 64 (USA 206)    
1 35752U 09043A   26137.72285273 -.00000073  00000+0  00000+0 0  9992
2 35752  56.1919  28.6484 0053391  82.0019 288.9209  2.00555780122755
NAVSTAR 65 (USA 213)    
1 36585U 10022A   26137.60907735  .00000049  00000+0  00000+0 0  9999
2 36585  54.2733 209.7940 0126408  66.1106 340.3358  2.00560837116987
NAVSTAR 67 (USA 239)    
1 38833U 12053A   26137.40512145  .00000074  00000+0  00000+0 0  9996
2 38833  53.5797 144.8603 0178732  65.3642 296.5167  2.00566950 98829
NAVSTAR 68 (USA 242)    
1 39166U 13023A   26135.27691818 -.00000031  00000+0  00000+0 0  9996
2 39166  54.5310 270.3138 0141799  50.8427 310.3815  2.00563577 95220
NAVSTAR 69 (USA 248)    
1 39533U 14008A   26138.26963767  .00000067  00000+0  00000+0 0  9993
2 39533  53.6491 150.5399 0084114 230.7151 128.5689  2.00557820 89085
NAVSTAR 70 (USA 251)    
1 39741U 14026A   26138.54510104 -.00000069  00000+0  00000+0 0  9991
2 39741  56.5121 332.6713 0038530 326.8805  32.8940  2.00563079 87948
NAVSTAR 71 (USA 256)    
1 40105U 14045A   26138.13773009 -.00000002  00000+0  00000+0 0  9995
2 40105  55.3344  89.6616 0032232 118.6149 241.6724  2.00556317 85473
NAVSTAR 72 (USA 258)    
1 40294U 14068A   26137.51152079 -.00000070  00000+0  00000+0 0  9993
2 40294  56.9673  32.1368 0066137  69.4915 291.2550  2.00574205 84592
NAVSTAR 73 (USA 260)    
1 40534U 15013A   26138.14629166  .00000047  00000+0  00000+0 0  9990
2 40534  53.1706 205.4202 0109031  40.0320 320.8517  2.00553124 81229
NAVSTAR 74 (USA 262)    
1 40730U 15033A   26137.80676265 -.00000023  00000+0  00000+0 0  9999
2 40730  54.0072 268.3387 0115008  30.0849 330.5516  2.00557741 79381
NAVSTAR 75 (USA 265)    
1 41019U 15062A   26137.86400249 -.00000071  00000+0  00000+0 0  9998
2 41019  56.9399  31.9795 0111349 231.3501 127.6871  2.00566870 77220
NAVSTAR 76 (USA 266)    
1 41328U 16007A   26137.95297603  .00000000  00000+0  00000+0 0  9990
2 41328  55.5063  90.6577 0096068 247.2795 111.6667  2.00553046 75233
NAVSTAR 77 (USA 289)    
1 43873U 18109A   26138.11479340  .00000005  00000+0  00000+0 0  9996
2 43873  55.6647  93.3726 0037957 198.6732 171.5799  2.00560056 54470
NAVSTAR 78 (USA 293)    
1 44506U 19056A   26135.98166581 -.00000060  00000+0  00000+0 0  9996
2 44506  55.6526 332.4228 0060472 197.4166 335.4017  2.00569160 49428
NAVSTAR 79 (USA 304)    
1 45854U 20041A   26136.09318970 -.00000070  00000+0  00000+0 0  9994
2 45854  56.6497  30.1892 0062712 204.8386 348.2040  2.00559119 43399
NAVSTAR 80 (USA 309)    
1 46826U 20078A   26138.46835008  .00000038  00000+0  00000+0 0  9996
2 46826  53.9837 211.9841 0072228 206.3343 237.0291  2.00564728 40913
NAVSTAR 81 (USA 319)    
1 48859U 21054A   26137.34480044 -.00000068  00000+0  00000+0 0  9995
2 48859  55.1876 333.6992 0024566 229.1390 308.8618  2.00570739 36132
NAVSTAR 82 (USA 343)    
1 55268U 23009A   26137.54558709  .00000079  00000+0  00000+0 0  9996
2 55268  55.1179 149.7232 0006025 315.1333  45.7366  2.00573501 24635
NAVSTAR 83 (USA 440)    
1 62339U 24242A   26138.18116137 -.00000073  00000+0  00000+0 0  9994
2 62339  54.8626 335.3975 0017184   3.5056 178.8516  2.00570733 10656
NAVSTAR 84 (USA 545)    
1 64202U 25116A   26138.42023513 -.00000074  00000+0  00000+0 0  9999
2 64202  55.2158  32.3285 0008480 335.9271 201.3041  2.00577680  7277
NAVSTAR 85 (USA 581)    
1 67588U 26017A   26137.78511104 -.00000002  00000+0  00000+0 0  9997
2 67588  55.0697  89.9749 0022866 255.8490 103.8596  2.00571671431000
